{"type": "FeatureCollection", "features": [ {"type": "Feature", "properties": {"norad_id": 39019, "name": "PLEIADES 1B", "group": "resource", "lat": -36.69821535260598, "lon": 77.10029417273843, "alt_km": 704.6006003625371, "timestamp": "2025-12-24T11:32:59.660767+00:00", "meta": {"OBJECT_NAME": "PLEIADES 1B", "OBJECT_ID": "2012-068A", "EPOCH": "2025-12-24T05:08:02.847840", "MEAN_MOTION": 14.58562673, "ECCENTRICITY": 0.0001131, "INCLINATION": 98.1782, "RA_OF_ASC_NODE": 70.6842, "ARG_OF_PERICENTER": 86.8042, "MEAN_ANOMALY": 273.3286, "EPHEMERIS_TYPE": 0, "CLASSIFICATION_TYPE": "U", "NORAD_CAT_ID": 39019, "ELEMENT_SET_NO": 999, "REV_AT_EPOCH": 69534, "BSTAR": 8.6089e-05, "MEAN_MOTION_DOT": 3.55e-06, "MEAN_MOTION_DDOT": 0}, "tle": {"line1": "1 39019U 12068A   25358.21392185  .00000355  00000+0  86089-4 0  9990", "line2": "2 39019  98.1782  70.6842 0001131  86.8042 273.3286 14.58562673695345"}}, "geometry": {"type": "Point", "coordinates": [77.10029417273843, -36.69821535260598]}}, {"type": "Feature", "properties": {"norad_id": 39030, "name": "GOKTURK 2", "group": "resource", "lat": 15.255741504557012, "lon": 21.66831452337003, "alt_km": 644.5022975815118, "timestamp": "2025-12-24T11:32:59.660777+00:00", "meta": {"OBJECT_NAME": "GOKTURK 2", "OBJECT_ID": "2012-073A", "EPOCH": "2025-12-24T04:17:44.635776", "MEAN_MOTION": 14.7530492, "ECCENTRICITY": 0.0001396, "INCLINATION": 97.6883, "RA_OF_ASC_NODE": 199.2696, "ARG_OF_PERICENTER": 107.2476, "MEAN_ANOMALY": 252.8886, "EPHEMERIS_TYPE": 0, "CLASSIFICATION_TYPE": "U", "NORAD_CAT_ID": 39030, "ELEMENT_SET_NO": 999, "REV_AT_EPOCH": 69870, "BSTAR": 5.8451e-05, "MEAN_MOTION_DOT": 3.49e-06, "MEAN_MOTION_DDOT": 0}, "tle": {"line1": "1 39030U 12073A   25358.17898884  .00000349  00000+0  58451-4 0  9996", "line2": "2 39030  97.6883 199.2696 0001396 107.2476 252.8886 14.75304920698700"}}, "geometry": {"type": "Point", "coordinates": [21.66831452337003, 15.255741504557012]}}, {"type": "Feature", "properties": {"norad_id": 39084, "name": "LANDSAT 8", "group": "resource", "lat": 70.27589403948777, "lon": 42.64745760889467, "alt_km": 694.9889832555582, "timestamp": "2025-12-24T11:32:59.660788+00:00", "meta": {"OBJECT_NAME": "LANDSAT 8", "OBJECT_ID": "2013-008A", "EPOCH": "2025-12-24T02:58:49.342080", "MEAN_MOTION": 14.57113636, "ECCENTRICITY": 0.000106, "INCLINATION": 98.2057, "RA_OF_ASC_NODE": 66.0289, "ARG_OF_PERICENTER": 92.9776, "MEAN_ANOMALY": 267.1543, "EPHEMERIS_TYPE": 0, "CLASSIFICATION_TYPE": "U", "NORAD_CAT_ID": 39084, "ELEMENT_SET_NO": 999, "REV_AT_EPOCH": 67240, "BSTAR": 0.00010048, "MEAN_MOTION_DOT": 4.08e-06, "MEAN_MOTION_DDOT": 0}, "tle": {"line1": "1 39084U 13008A   25358.12418220  .00000408  00000+0  10048-3 0  9996", "line2": "2 39084  98.2057  66.0289 0001060  92.9776 267.1543 14.57113636672409"}}, "geometry": {"type": "Point", "coordinates": [42.64745760889467, 70.27589403948777]}}, {"type": "Feature", "properties": {"norad_id": 39086, "name": "SARAL", "group": "resource", "lat": 68.24464496632353, "lon": 24.40570410504164, "alt_km": 773.9148494998726, "timestamp": "2025-12-24T11:32:59.660798+00:00", "meta": {"OBJECT_NAME": "SARAL", "OBJECT_ID": "2013-009A", "EPOCH": "2025-12-24T02:39:29.240640", "MEAN_MOTION": 14.32760818, "ECCENTRICITY": 0.0002962, "INCLINATION": 98.5503, "RA_OF_ASC_NODE": 181.8927, "ARG_OF_PERICENTER": 87.3964, "MEAN_ANOMALY": 272.7559, "EPHEMERIS_TYPE": 0, "CLASSIFICATION_TYPE": "U", "NORAD_CAT_ID": 39086, "ELEMENT_SET_NO": 999, "REV_AT_EPOCH": 67053, "BSTAR": 5.9632e-05, "MEAN_MOTION_DOT": 1.19e-06, "MEAN_MOTION_DDOT": 0}, "tle": {"line1": "1 39086U 13009A   25358.11075510  .00000119  00000+0  59632-4 0  9991", "line2": "2 39086  98.5503 181.8927 0002962  87.3964 272.7559 14.32760818670538"}}, "geometry": {"type": "Point", "coordinates": [24.40570410504164, 68.24464496632353]}}, {"type": "Feature", "properties": {"norad_id": 39150, "name": "GAOFEN-1", "group": "resource", "lat": -64.66537079401469, "lon": 86.05810861302538, "alt_km": 660.5063099943991, "timestamp": "2025-12-24T11:32:59.660809+00:00", "meta": {"OBJECT_NAME": "GAOFEN-1", "OBJECT_ID": "2013-018A", "EPOCH": "2025-12-24T05:20:33.900576", "MEAN_MOTION": 14.76498296, "ECCENTRICITY": 0.0018486, "INCLINATION": 97.9314, "RA_OF_ASC_NODE": 68.6783, "ARG_OF_PERICENTER": 108.2648, "MEAN_ANOMALY": 252.0575, "EPHEMERIS_TYPE": 0, "CLASSIFICATION_TYPE": "U", "NORAD_CAT_ID": 39150, "ELEMENT_SET_NO": 999, "REV_AT_EPOCH": 68242, "BSTAR": 0.00010602, "MEAN_MOTION_DOT": 6.89e-06, "MEAN_MOTION_DDOT": 0}, "tle": {"line1": "1 39150U 13018A   25358.22261459  .00000689  00000+0  10602-3 0  9999", "line2": "2 39150  97.9314  68.6783 0018486 108.2648 252.0575 14.76498296682421"}}, "geometry": {"type": "Point", "coordinates": [86.05810861302538, -64.66537079401469]}}, {"type": "Feature", "properties": {"norad_id": 39160, "name": "VNREDSAT 1", "group": "resource", "lat": -47.122522912606556, "lon": -135.29582193664407, "alt_km": 684.7523370647823, "timestamp": "2025-12-24T11:32:59.660819+00:00", "meta": {"OBJECT_NAME": "VNREDSAT 1", "OBJECT_ID": "2013-021B", "EPOCH": "2025-12-24T03:57:24.792192", "MEAN_MOTION": 14.6493862, "ECCENTRICITY": 0.000116, "INCLINATION": 97.9355, "RA_OF_ASC_NODE": 53.0388, "ARG_OF_PERICENTER": 83.6891, "MEAN_ANOMALY": 276.4445, "EPHEMERIS_TYPE": 0, "CLASSIFICATION_TYPE": "U", "NORAD_CAT_ID": 39160, "ELEMENT_SET_NO": 999, "REV_AT_EPOCH": 67466, "BSTAR": 0.00011036, "MEAN_MOTION_DOT": 5.45e-06, "MEAN_MOTION_DDOT": 0}, "tle": {"line1": "1 39160U 13021B   25358.16487028  .00000545  00000+0  11036-3 0  9992", "line2": "2 39160  97.9355  53.0388 0001160  83.6891 276.4445 14.64938620674663"}}, "geometry": {"type": "Point", "coordinates": [-135.29582193664407, -47.122522912606556]}}, {"type": "Feature", "properties": {"norad_id": 39227, "name": "ARIRANG-5 (KOMPSAT-5)", "group": "resource", "lat": 3.0857588959981688, "lon": 3.031324429833283, "alt_km": 557.4582174937477, "timestamp": "2025-12-24T11:32:59.660830+00:00", "meta": {"OBJECT_NAME": "ARIRANG-5 (KOMPSAT-5)", "OBJECT_ID": "2013-042A", "EPOCH": "2025-12-24T04:22:54.829920", "MEAN_MOTION": 15.04476771, "ECCENTRICITY": 0.000306, "INCLINATION": 97.6162, "RA_OF_ASC_NODE": 182.3237, "ARG_OF_PERICENTER": 34.6761, "MEAN_ANOMALY": 325.4664, "EPHEMERIS_TYPE": 0, "CLASSIFICATION_TYPE": "U", "NORAD_CAT_ID": 39227, "ELEMENT_SET_NO": 999, "REV_AT_EPOCH": 67754, "BSTAR": 6.3804e-05, "MEAN_MOTION_DOT": 8.32e-06, "MEAN_MOTION_DDOT": 0}, "tle": {"line1": "1 39227U 13042A   25358.18257905  .00000832  00000+0  63804-4 0  9990", "line2": "2 39227  97.6162 182.3237 0003060  34.6761 325.4664 15.04476771677549"}}, "geometry": {"type": "Point", "coordinates": [3.031324429833283, 3.0857588959981688]}}, {"type": "Feature", "properties": {"norad_id": 39418, "name": "SKYSAT-A", "group": "resource", "lat": 49.28032003985486, "lon": -122.97258281981297, "alt_km": 520.1181040629508, "timestamp": "2025-12-24T11:32:59.660841+00:00", "meta": {"OBJECT_NAME": "SKYSAT-A", "OBJECT_ID": "2013-066C", "EPOCH": "2025-12-24T03:01:54.975072", "MEAN_MOTION": 15.11683099, "ECCENTRICITY": 0.0021552, "INCLINATION": 97.4086, "RA_OF_ASC_NODE": 47.9884, "ARG_OF_PERICENTER": 195.4454, "MEAN_ANOMALY": 164.6121, "EPHEMERIS_TYPE": 0, "CLASSIFICATION_TYPE": "U", "NORAD_CAT_ID": 39418, "ELEMENT_SET_NO": 999, "REV_AT_EPOCH": 66202, "BSTAR": 0.00020316, "MEAN_MOTION_DOT": 3.412e-05, "MEAN_MOTION_DDOT": 0}, "tle": {"line1": "1 39418U 13066C   25358.12633073  .00003412  00000+0  20316-3 0  9993", "line2": "2 39418  97.4086  47.9884 0021552 195.4454 164.6121 15.11683099662028"}}, "geometry": {"type": "Point", "coordinates": [-122.97258281981297, 49.28032003985486]}}, {"type": "Feature", "properties": {"norad_id": 39419, "name": "DUBAISAT-2", "group": "resource", "lat": 43.58451124334858, "lon": 175.67775801857886, "alt_km": 542.5457773405778, "timestamp": "2025-12-24T11:32:59.660852+00:00", "meta": {"OBJECT_NAME": "DUBAISAT-2", "OBJECT_ID": "2013-066D", "EPOCH": "2025-12-24T04:34:50.378304", "MEAN_MOTION": 15.08461979, "ECCENTRICITY": 0.0009941, "INCLINATION": 97.4458, "RA_OF_ASC_NODE": 348.2459, "ARG_OF_PERICENTER": 276.6439, "MEAN_ANOMALY": 83.3658, "EPHEMERIS_TYPE": 0, "CLASSIFICATION_TYPE": "U", "NORAD_CAT_ID": 39419, "ELEMENT_SET_NO": 999, "REV_AT_EPOCH": 65999, "BSTAR": 0.00034367, "MEAN_MOTION_DOT": 5.299e-05, "MEAN_MOTION_DDOT": 0}, "tle": {"line1": "1 39419U 13066D   25358.19086086  .00005299  00000+0  34367-3 0  9993", "line2": "2 39419  97.4458 348.2459 0009941 276.6439  83.3658 15.08461979659991"}}, "geometry": {"type": "Point", "coordinates": [175.67775801857886, 43.58451124334858]}}, {"type": "Feature", "properties": {"norad_id": 39574, "name": "GPM-CORE", "group": "resource", "lat": 30.99714231642422, "lon": -170.33597028744677, "alt_km": 434.89078892259477, "timestamp": "2025-12-24T11:32:59.660862+00:00", "meta": {"OBJECT_NAME": "GPM-CORE", "OBJECT_ID": "2014-009C", "EPOCH": "2025-12-24T02:04:37.373952", "MEAN_MOTION": 15.44634912, "ECCENTRICITY": 0.0009161, "INCLINATION": 64.9724, "RA_OF_ASC_NODE": 174.683, "ARG_OF_PERICENTER": 250.1064, "MEAN_ANOMALY": 109.9089, "EPHEMERIS_TYPE": 0, "CLASSIFICATION_TYPE": "U", "NORAD_CAT_ID": 39574, "ELEMENT_SET_NO": 999, "REV_AT_EPOCH": 67076, "BSTAR": 0.00018893, "MEAN_MOTION_DOT": 8.614e-05, "MEAN_MOTION_DDOT": 0}, "tle": {"line1": "1 39574U 14009C   25358.08654368  .00008614  00000+0  18893-3 0  9995", "line2": "2 39574  64.9724 174.6830 0009161 250.1064 109.9089 15.44634912670767"}}, "geometry": {"type": "Point", "coordinates": [-170.33597028744677, 30.99714231642422]}}]}